[
  {
    "COMMENT": "GENERATED VIA SPACETRACK.ORG API",
    "ORIGINATOR": "18 SPCS",
    "NORAD_CAT_ID": "41240",
    "OBJECT_NAME": "JASON 3",
    "OBJECT_TYPE": "PAYLOAD",
    "CLASSIFICATION_TYPE": "U",
    "INTLDES": "16002A",
    "EPOCH": "2023-05-28 21:13:08",
    "EPOCH_MICROSECONDS": "761152",
    "MEAN_MOTION": "12.80928497",
    "ECCENTRICITY": "0.0007676",
    "INCLINATION": "66.0417",
    "RA_OF_ASC_NODE": "291.6071",
    "ARG_OF_PERICENTER": "271.328",
    "MEAN_ANOMALY": "88.6856",
    "EPHEMERIS_TYPE": "0",
    "ELEMENT_SET_NO": "999",
    "REV_AT_EPOCH": "34415",
    "BSTAR": "0.00021254",
    "MEAN_MOTION_DOT": "-0.00000012",
    "MEAN_MOTION_DDOT": "0",
    "FILE": "3919546",
    "TLE_LINE0": "0 JASON 3",
    "TLE_LINE1": "1 41240U 16002A   23148.88412918 -.00000012  00000-0  21254-3 0  9990",
    "TLE_LINE2": "2 41240  66.0417 291.6071 0007676 271.3280  88.6856 12.80928497344150",
    "OBJECT_ID": "2016-002A",
    "OBJECT_NUMBER": "41240",
    "SEMIMAJOR_AXIS": "7715.876",
    "PERIOD": "112.418",
    "APOGEE": "1343.664",
    "PERIGEE": "1331.818",
    "DECAYED": "0"
  },
  {
    "COMMENT": "GENERATED VIA SPACETRACK.ORG API",
    "ORIGINATOR": "18 SPCS",
    "NORAD_CAT_ID": "41240",
    "OBJECT_NAME": "JASON 3",
    "OBJECT_TYPE": "PAYLOAD",
    "CLASSIFICATION_TYPE": "U",
    "INTLDES": "16002A",
    "EPOCH": "2023-05-29 10:20:09",
    "EPOCH_MICROSECONDS": "136320",
    "MEAN_MOTION": "12.80928515",
    "ECCENTRICITY": "0.0007684",
    "INCLINATION": "66.0417",
    "RA_OF_ASC_NODE": "290.472",
    "ARG_OF_PERICENTER": "271.2684",
    "MEAN_ANOMALY": "88.7451",
    "EPHEMERIS_TYPE": "0",
    "ELEMENT_SET_NO": "999",
    "REV_AT_EPOCH": "34436",
    "BSTAR": "0.00014019",
    "MEAN_MOTION_DOT": "-0.00000029",
    "MEAN_MOTION_DDOT": "0",
    "FILE": "3919919",
    "TLE_LINE0": "0 JASON 3",
    "TLE_LINE1": "1 41240U 16002A   23149.43066130 -.00000029  00000-0  14019-3 0  9992",
    "TLE_LINE2": "2 41240  66.0417 290.4720 0007684 271.2684  88.7451 12.80928515344360",
    "OBJECT_ID": "2016-002A",
    "OBJECT_NUMBER": "41240",
    "SEMIMAJOR_AXIS": "7715.876",
    "PERIOD": "112.418",
    "APOGEE": "1343.670",
    "PERIGEE": "1331.812",
    "DECAYED": "0"
  },
  {
    "COMMENT": "GENERATED VIA SPACETRACK.ORG API",
    "ORIGINATOR": "18 SPCS",
    "NORAD_CAT_ID": "41240",
    "OBJECT_NAME": "JASON 3",
    "OBJECT_TYPE": "PAYLOAD",
    "CLASSIFICATION_TYPE": "U",
    "INTLDES": "16002A",
    "EPOCH": "2023-05-29 14:05:00",
    "EPOCH_MICROSECONDS": "671712",
    "MEAN_MOTION": "12.80928518",
    "ECCENTRICITY": "0.0007686",
    "INCLINATION": "66.0417",
    "RA_OF_ASC_NODE": "290.1476",
    "ARG_OF_PERICENTER": "271.2633",
    "MEAN_ANOMALY": "88.7502",
    "EPHEMERIS_TYPE": "0",
    "ELEMENT_SET_NO": "999",
    "REV_AT_EPOCH": "34424",
    "BSTAR": "0.00014158",
    "MEAN_MOTION_DOT": "-0.00000028",
    "MEAN_MOTION_DDOT": "0",
    "FILE": "3920065",
    "TLE_LINE0": "0 JASON 3",
    "TLE_LINE1": "1 41240U 16002A   23149.58681333 -.00000028  00000-0  14158-3 0  9999",
    "TLE_LINE2": "2 41240  66.0417 290.1476 0007686 271.2633  88.7502 12.80928518344248",
    "OBJECT_ID": "2016-002A",
    "OBJECT_NUMBER": "41240",
    "SEMIMAJOR_AXIS": "7715.876",
    "PERIOD": "112.418",
    "APOGEE": "1343.672",
    "PERIGEE": "1331.811",
    "DECAYED": "0"
  },
  {
    "COMMENT": "GENERATED VIA SPACETRACK.ORG API",
    "ORIGINATOR": "18 SPCS",
    "NORAD_CAT_ID": "41240",
    "OBJECT_NAME": "JASON 3",
    "OBJECT_TYPE": "PAYLOAD",
    "CLASSIFICATION_TYPE": "U",
    "INTLDES": "16002A",
    "EPOCH": "2023-05-29 21:34:43",
    "EPOCH_MICROSECONDS": "741632",
    "MEAN_MOTION": "12.80928558",
    "ECCENTRICITY": "0.0007698",
    "INCLINATION": "66.0417",
    "RA_OF_ASC_NODE": "289.499",
    "ARG_OF_PERICENTER": "271.2176",
    "MEAN_ANOMALY": "88.7957",
    "EPHEMERIS_TYPE": "0",
    "ELEMENT_SET_NO": "999",
    "REV_AT_EPOCH": "34428",
    "BSTAR": "0.00015737",
    "MEAN_MOTION_DOT": "-0.00000025",
    "MEAN_MOTION_DDOT": "0",
    "FILE": "3920354",
    "TLE_LINE0": "0 JASON 3",
    "TLE_LINE1": "1 41240U 16002A   23149.89911738 -.00000025  00000-0  15737-3 0  9999",
    "TLE_LINE2": "2 41240  66.0417 289.4990 0007698 271.2176  88.7957 12.80928558344287",
    "OBJECT_ID": "2016-002A",
    "OBJECT_NUMBER": "41240",
    "SEMIMAJOR_AXIS": "7715.876",
    "PERIOD": "112.418",
    "APOGEE": "1343.681",
    "PERIGEE": "1331.801",
    "DECAYED": "0"
  },
  {
    "COMMENT": "GENERATED VIA SPACETRACK.ORG API",
    "ORIGINATOR": "18 SPCS",
    "NORAD_CAT_ID": "41240",
    "OBJECT_NAME": "JASON 3",
    "OBJECT_TYPE": "PAYLOAD",
    "CLASSIFICATION_TYPE": "U",
    "INTLDES": "16002A",
    "EPOCH": "2023-05-30 10:41:44",
    "EPOCH_MICROSECONDS": "114208",
    "MEAN_MOTION": "12.80928548",
    "ECCENTRICITY": "0.0007704",
    "INCLINATION": "66.0417",
    "RA_OF_ASC_NODE": "288.3639",
    "ARG_OF_PERICENTER": "271.1736",
    "MEAN_ANOMALY": "88.8397",
    "EPHEMERIS_TYPE": "0",
    "ELEMENT_SET_NO": "999",
    "REV_AT_EPOCH": "34449",
    "BSTAR": "0.000057076",
    "MEAN_MOTION_DOT": "-0.00000048",
    "MEAN_MOTION_DDOT": "0",
    "FILE": "3920770",
    "TLE_LINE0": "0 JASON 3",
    "TLE_LINE1": "1 41240U 16002A   23150.44564947 -.00000048  00000-0  57076-4 0  9996",
    "TLE_LINE2": "2 41240  66.0417 288.3639 0007704 271.1736  88.8397 12.80928548344495",
    "OBJECT_ID": "2016-002A",
    "OBJECT_NUMBER": "41240",
    "SEMIMAJOR_AXIS": "7715.876",
    "PERIOD": "112.418",
    "APOGEE": "1343.685",
    "PERIGEE": "1331.797",
    "DECAYED": "0"
  },
  {
    "COMMENT": "GENERATED VIA SPACETRACK.ORG API",
    "ORIGINATOR": "18 SPCS",
    "NORAD_CAT_ID": "41240",
    "OBJECT_NAME": "JASON 3",
    "OBJECT_TYPE": "PAYLOAD",
    "CLASSIFICATION_TYPE": "U",
    "INTLDES": "16002A",
    "EPOCH": "2023-05-30 14:26:35",
    "EPOCH_MICROSECONDS": "649600",
    "MEAN_MOTION": "12.80928567",
    "ECCENTRICITY": "0.0007709",
    "INCLINATION": "66.0418",
    "RA_OF_ASC_NODE": "288.0395",
    "ARG_OF_PERICENTER": "271.1598",
    "MEAN_ANOMALY": "88.8534",
    "EPHEMERIS_TYPE": "0",
    "ELEMENT_SET_NO": "999",
    "REV_AT_EPOCH": "34437",
    "BSTAR": "0.000083027",
    "MEAN_MOTION_DOT": "-0.00000042",
    "MEAN_MOTION_DDOT": "0",
    "FILE": "3920920",
    "TLE_LINE0": "0 JASON 3",
    "TLE_LINE1": "1 41240U 16002A   23150.60180150 -.00000042  00000-0  83027-4 0  9993",
    "TLE_LINE2": "2 41240  66.0418 288.0395 0007709 271.1598  88.8534 12.80928567344374",
    "OBJECT_ID": "2016-002A",
    "OBJECT_NUMBER": "41240",
    "SEMIMAJOR_AXIS": "7715.876",
    "PERIOD": "112.418",
    "APOGEE": "1343.689",
    "PERIGEE": "1331.793",
    "DECAYED": "0"
  },
  {
    "COMMENT": "GENERATED VIA SPACETRACK.ORG API",
    "ORIGINATOR": "18 SPCS",
    "NORAD_CAT_ID": "41240",
    "OBJECT_NAME": "JASON 3",
    "OBJECT_TYPE": "PAYLOAD",
    "CLASSIFICATION_TYPE": "U",
    "INTLDES": "16002A",
    "EPOCH": "2023-05-30 21:56:18",
    "EPOCH_MICROSECONDS": "719520",
    "MEAN_MOTION": "12.80928602",
    "ECCENTRICITY": "0.0007713",
    "INCLINATION": "66.0418",
    "RA_OF_ASC_NODE": "287.3908",
    "ARG_OF_PERICENTER": "271.1581",
    "MEAN_ANOMALY": "88.855",
    "EPHEMERIS_TYPE": "0",
    "ELEMENT_SET_NO": "999",
    "REV_AT_EPOCH": "34441",
    "BSTAR": "0.00010227",
    "MEAN_MOTION_DOT": "-0.00000037",
    "MEAN_MOTION_DDOT": "0",
    "FILE": "3921192",
    "TLE_LINE0": "0 JASON 3",
    "TLE_LINE1": "1 41240U 16002A   23150.91410555 -.00000037  00000-0  10227-3 0  9997",
    "TLE_LINE2": "2 41240  66.0418 287.3908 0007713 271.1581  88.8550 12.80928602344416",
    "OBJECT_ID": "2016-002A",
    "OBJECT_NUMBER": "41240",
    "SEMIMAJOR_AXIS": "7715.876",
    "PERIOD": "112.418",
    "APOGEE": "1343.692",
    "PERIGEE": "1331.790",
    "DECAYED": "0"
  },
  {
    "COMMENT": "GENERATED VIA SPACETRACK.ORG API",
    "ORIGINATOR": "18 SPCS",
    "NORAD_CAT_ID": "41240",
    "OBJECT_NAME": "JASON 3",
    "OBJECT_TYPE": "PAYLOAD",
    "CLASSIFICATION_TYPE": "U",
    "INTLDES": "16002A",
    "EPOCH": "2023-05-31 11:03:19",
    "EPOCH_MICROSECONDS": "97280",
    "MEAN_MOTION": "12.80928569",
    "ECCENTRICITY": "0.0007716",
    "INCLINATION": "66.0418",
    "RA_OF_ASC_NODE": "286.2557",
    "ARG_OF_PERICENTER": "271.119",
    "MEAN_ANOMALY": "88.8941",
    "EPHEMERIS_TYPE": "0",
    "ELEMENT_SET_NO": "999",
    "REV_AT_EPOCH": "34462",
    "BSTAR": "0.000022117",
    "MEAN_MOTION_DOT": "-0.00000056",
    "MEAN_MOTION_DDOT": "0",
    "FILE": "3921607",
    "TLE_LINE0": "0 JASON 3",
    "TLE_LINE1": "1 41240U 16002A   23151.46063770 -.00000056  00000-0  22117-4 0  9994",
    "TLE_LINE2": "2 41240  66.0418 286.2557 0007716 271.1190  88.8941 12.80928569344622",
    "OBJECT_ID": "2016-002A",
    "OBJECT_NUMBER": "41240",
    "SEMIMAJOR_AXIS": "7715.876",
    "PERIOD": "112.418",
    "APOGEE": "1343.694",
    "PERIGEE": "1331.787",
    "DECAYED": "0"
  },
  {
    "COMMENT": "GENERATED VIA SPACETRACK.ORG API",
    "ORIGINATOR": "18 SPCS",
    "NORAD_CAT_ID": "41240",
    "OBJECT_NAME": "JASON 3",
    "OBJECT_TYPE": "PAYLOAD",
    "CLASSIFICATION_TYPE": "U",
    "INTLDES": "16002A",
    "EPOCH": "2023-05-31 12:55:44",
    "EPOCH_MICROSECONDS": "863680",
    "MEAN_MOTION": "12.80928582",
    "ECCENTRICITY": "0.0007719",
    "INCLINATION": "66.0418",
    "RA_OF_ASC_NODE": "286.0935",
    "ARG_OF_PERICENTER": "271.1125",
    "MEAN_ANOMALY": "88.9006",
    "EPHEMERIS_TYPE": "0",
    "ELEMENT_SET_NO": "999",
    "REV_AT_EPOCH": "34449",
    "BSTAR": "0.000037672",
    "MEAN_MOTION_DOT": "-0.00000052",
    "MEAN_MOTION_DDOT": "0",
    "FILE": "3921767",
    "TLE_LINE0": "0 JASON 3",
    "TLE_LINE1": "1 41240U 16002A   23151.53871370 -.00000052  00000-0  37672-4 0  9993",
    "TLE_LINE2": "2 41240  66.0418 286.0935 0007719 271.1125  88.9006 12.80928582344494",
    "OBJECT_ID": "2016-002A",
    "OBJECT_NUMBER": "41240",
    "SEMIMAJOR_AXIS": "7715.876",
    "PERIOD": "112.418",
    "APOGEE": "1343.697",
    "PERIGEE": "1331.785",
    "DECAYED": "0"
  }
]